[{"OBJECT_NAME":"STARLINK-34690","OBJECT_ID":"2025-152X","EPOCH":"2026-03-09T13:45:52.955712","MEAN_MOTION":15.0565091,"ECCENTRICITY":0.0002429,"INCLINATION":97.6023,"RA_OF_ASC_NODE":285.4597,"ARG_OF_PERICENTER":72.7737,"MEAN_ANOMALY":287.3755,"EPHEMERIS_TYPE":0,"CLASSIFICATION_TYPE":"U","NORAD_CAT_ID":64863,"ELEMENT_SET_NO":999,"REV_AT_EPOCH":3540,"BSTAR":0.00022893,"MEAN_MOTION_DOT":3.244e-5,"MEAN_MOTION_DDOT":0},{"OBJECT_NAME":"FENGYUN 1C DEB","OBJECT_ID":"1999-025CKC","EPOCH":"2026-03-08T17:03:17.573184","MEAN_MOTION":15.04248193,"ECCENTRICITY":0.00988517,"INCLINATION":98.9933,"RA_OF_ASC_NODE":156.7578,"ARG_OF_PERICENTER":358.897,"MEAN_ANOMALY":1.2019,"EPHEMERIS_TYPE":0,"CLASSIFICATION_TYPE":"U","NORAD_CAT_ID":31877,"ELEMENT_SET_NO":999,"REV_AT_EPOCH":332,"BSTAR":0.0010830251,"MEAN_MOTION_DOT":0.0001673,"MEAN_MOTION_DDOT":0}]
